CCSDS_OMM_VERS = 2.0
CREATION_DATE  = 
ORIGINATOR     = 

OBJECT_NAME    = H-2A R/B
OBJECT_ID      = 2006-002B
CENTER_NAME    = EARTH
REF_FRAME      = TEME
TIME_SYSTEM    = UTC
MEAN_ELEMENT_THEORY = SGP/SGP4

EPOCH          = 2026-03-24T07:44:30.092064
MEAN_MOTION    = 15.16734395
ECCENTRICITY   = .00523
INCLINATION    = 98.2441
RA_OF_ASC_NODE = 231.6103
ARG_OF_PERICENTER = 190.7906
MEAN_ANOMALY   = 169.2207

EPHEMERIS_TYPE = 0
CLASSIFICATION_TYPE = U
NORAD_CAT_ID   = 28932
ELEMENT_SET_NO = 999
REV_AT_EPOCH   = 9665
BSTAR          = .47074601E-3
MEAN_MOTION_DOT = .9484E-4
MEAN_MOTION_DDOT = 0

CCSDS_OMM_VERS = 2.0
CREATION_DATE  = 
ORIGINATOR     = 

OBJECT_NAME    = RESURS-DK 1
OBJECT_ID      = 2006-021A
CENTER_NAME    = EARTH
REF_FRAME      = TEME
TIME_SYSTEM    = UTC
MEAN_ELEMENT_THEORY = SGP/SGP4

EPOCH          = 2026-03-23T18:02:22.728480
MEAN_MOTION    = 15.12835410
ECCENTRICITY   = .00007134
INCLINATION    = 69.9339
RA_OF_ASC_NODE = 200.6470
ARG_OF_PERICENTER = 89.5327
MEAN_ANOMALY   = 270.5921

EPHEMERIS_TYPE = 0
CLASSIFICATION_TYPE = U
NORAD_CAT_ID   = 29228
ELEMENT_SET_NO = 999
REV_AT_EPOCH   = 8965
BSTAR          = .16022921E-3
MEAN_MOTION_DOT = .2715E-4
MEAN_MOTION_DDOT = 0

CCSDS_OMM_VERS = 2.0
CREATION_DATE  = 
ORIGINATOR     = 

OBJECT_NAME    = CZ-4B R/B
OBJECT_ID      = 2006-046C
CENTER_NAME    = EARTH
REF_FRAME      = TEME
TIME_SYSTEM    = UTC
MEAN_ELEMENT_THEORY = SGP/SGP4

EPOCH          = 2026-03-24T02:54:12.951936
MEAN_MOTION    = 15.17047729
ECCENTRICITY   = .00322854
INCLINATION    = 97.5564
RA_OF_ASC_NODE = 127.9906
ARG_OF_PERICENTER = 215.1517
MEAN_ANOMALY   = 144.7587

EPHEMERIS_TYPE = 0
CLASSIFICATION_TYPE = U
NORAD_CAT_ID   = 29507
ELEMENT_SET_NO = 999
REV_AT_EPOCH   = 6223
BSTAR          = .2526054E-3
MEAN_MOTION_DOT = .4994E-4
MEAN_MOTION_DDOT = 0

CCSDS_OMM_VERS = 2.0
CREATION_DATE  = 
ORIGINATOR     = 

OBJECT_NAME    = CZ-2C R/B
OBJECT_ID      = 2007-010B
CENTER_NAME    = EARTH
REF_FRAME      = TEME
TIME_SYSTEM    = UTC
MEAN_ELEMENT_THEORY = SGP/SGP4

EPOCH          = 2026-03-24T07:25:05.418336
MEAN_MOTION    = 14.20251257
ECCENTRICITY   = .00579276
INCLINATION    = 98.3994
RA_OF_ASC_NODE = 195.8562
ARG_OF_PERICENTER = 251.2653
MEAN_ANOMALY   = 108.2233

EPHEMERIS_TYPE = 0
CLASSIFICATION_TYPE = U
NORAD_CAT_ID   = 31114
ELEMENT_SET_NO = 999
REV_AT_EPOCH   = 98179
BSTAR          = .79936216E-4
MEAN_MOTION_DOT = .132E-5
MEAN_MOTION_DDOT = 0

CCSDS_OMM_VERS = 2.0
CREATION_DATE  = 
ORIGINATOR     = 

OBJECT_NAME    = COSMO-SKYMED 1
OBJECT_ID      = 2007-023A
CENTER_NAME    = EARTH
REF_FRAME      = TEME
TIME_SYSTEM    = UTC
MEAN_ELEMENT_THEORY = SGP/SGP4

EPOCH          = 2026-03-24T05:45:27.113760
MEAN_MOTION    = 14.96640411
ECCENTRICITY   = .00010672
INCLINATION    = 97.8880
RA_OF_ASC_NODE = 274.3906
ARG_OF_PERICENTER = 87.8942
MEAN_ANOMALY   = 272.2401

EPHEMERIS_TYPE = 0
CLASSIFICATION_TYPE = U
NORAD_CAT_ID   = 31598
ELEMENT_SET_NO = 999
REV_AT_EPOCH   = 1708
BSTAR          = .24253635E-3
MEAN_MOTION_DOT = .2705E-4
MEAN_MOTION_DDOT = 0

CCSDS_OMM_VERS = 2.0
CREATION_DATE  = 
ORIGINATOR     = 

OBJECT_NAME    = COSMOS 2428
OBJECT_ID      = 2007-029A
CENTER_NAME    = EARTH
REF_FRAME      = TEME
TIME_SYSTEM    = UTC
MEAN_ELEMENT_THEORY = SGP/SGP4

EPOCH          = 2026-03-24T06:14:30.841152
MEAN_MOTION    = 14.12948015
ECCENTRICITY   = .00096174
INCLINATION    = 70.9441
RA_OF_ASC_NODE = 172.7633
ARG_OF_PERICENTER = 262.1498
MEAN_ANOMALY   = 97.8531

EPHEMERIS_TYPE = 0
CLASSIFICATION_TYPE = U
NORAD_CAT_ID   = 31792
ELEMENT_SET_NO = 999
REV_AT_EPOCH   = 96615
BSTAR          = .19610423E-4
MEAN_MOTION_DOT = -.11E-6
MEAN_MOTION_DDOT = 0

CCSDS_OMM_VERS = 2.0
CREATION_DATE  = 
ORIGINATOR     = 

OBJECT_NAME    = SL-16 R/B
OBJECT_ID      = 2007-029B
CENTER_NAME    = EARTH
REF_FRAME      = TEME
TIME_SYSTEM    = UTC
MEAN_ELEMENT_THEORY = SGP/SGP4

EPOCH          = 2026-03-24T04:46:01.363296
MEAN_MOTION    = 14.14841932
ECCENTRICITY   = .00025199
INCLINATION    = 70.9755
RA_OF_ASC_NODE = 141.8874
ARG_OF_PERICENTER = 276.9911
MEAN_ANOMALY   = 143.7799

EPHEMERIS_TYPE = 0
CLASSIFICATION_TYPE = U
NORAD_CAT_ID   = 31793
ELEMENT_SET_NO = 999
REV_AT_EPOCH   = 96742
BSTAR          = .13809419E-3
MEAN_MOTION_DOT = .219E-5
MEAN_MOTION_DDOT = 0

CCSDS_OMM_VERS = 2.0
CREATION_DATE  = 
ORIGINATOR     = 

OBJECT_NAME    = KORONAS-FOTON
OBJECT_ID      = 2009-003A
CENTER_NAME    = EARTH
REF_FRAME      = TEME
TIME_SYSTEM    = UTC
MEAN_ELEMENT_THEORY = SGP/SGP4

EPOCH          = 2026-03-24T06:52:10.138080
MEAN_MOTION    = 15.43697304
ECCENTRICITY   = .00118109
INCLINATION    = 82.4279
RA_OF_ASC_NODE = 260.6954
ARG_OF_PERICENTER = 102.3489
MEAN_ANOMALY   = 257.9081

EPHEMERIS_TYPE = 0
CLASSIFICATION_TYPE = U
NORAD_CAT_ID   = 33504
ELEMENT_SET_NO = 999
REV_AT_EPOCH   = 94799
BSTAR          = .29840541E-3
MEAN_MOTION_DOT = .13535E-3
MEAN_MOTION_DDOT = 0

CCSDS_OMM_VERS = 2.0
CREATION_DATE  = 
ORIGINATOR     = 

OBJECT_NAME    = CZ-2C R/B
OBJECT_ID      = 2011-030B
CENTER_NAME    = EARTH
REF_FRAME      = TEME
TIME_SYSTEM    = UTC
MEAN_ELEMENT_THEORY = SGP/SGP4

EPOCH          = 2026-03-24T03:01:22.124064
MEAN_MOTION    = 14.81271857
ECCENTRICITY   = .00512971
INCLINATION    = 97.8570
RA_OF_ASC_NODE = 40.1028
ARG_OF_PERICENTER = 304.4753
MEAN_ANOMALY   = 65.4429

EPHEMERIS_TYPE = 0
CLASSIFICATION_TYPE = U
NORAD_CAT_ID   = 37731
ELEMENT_SET_NO = 999
REV_AT_EPOCH   = 79223
BSTAR          = .19549119E-3
MEAN_MOTION_DOT = .1503E-4
MEAN_MOTION_DDOT = 0

CCSDS_OMM_VERS = 2.0
CREATION_DATE  = 
ORIGINATOR     = 

OBJECT_NAME    = H-2A R/B
OBJECT_ID      = 2012-025E
CENTER_NAME    = EARTH
REF_FRAME      = TEME
TIME_SYSTEM    = UTC
MEAN_ELEMENT_THEORY = SGP/SGP4

EPOCH          = 2026-03-24T04:24:04.336992
MEAN_MOTION    = 14.95265395
ECCENTRICITY   = .00428013
INCLINATION    = 98.4756
RA_OF_ASC_NODE = 51.3931
ARG_OF_PERICENTER = 265.1602
MEAN_ANOMALY   = 94.4728

EPHEMERIS_TYPE = 0
CLASSIFICATION_TYPE = U
NORAD_CAT_ID   = 38341
ELEMENT_SET_NO = 999
REV_AT_EPOCH   = 75038
BSTAR          = .31308481E-3
MEAN_MOTION_DOT = .3439E-4
MEAN_MOTION_DDOT = 0

CCSDS_OMM_VERS = 2.0
CREATION_DATE  = 
ORIGINATOR     = 

OBJECT_NAME    = SHIJIAN-16 (SJ-16)
OBJECT_ID      = 2013-057A
CENTER_NAME    = EARTH
REF_FRAME      = TEME
TIME_SYSTEM    = UTC
MEAN_ELEMENT_THEORY = SGP/SGP4

EPOCH          = 2026-03-24T07:26:44.863872
MEAN_MOTION    = 14.92406797
ECCENTRICITY   = .00151872
INCLINATION    = 74.9725
RA_OF_ASC_NODE = 157.4116
ARG_OF_PERICENTER = 74.5742
MEAN_ANOMALY   = 285.7122

EPHEMERIS_TYPE = 0
CLASSIFICATION_TYPE = U
NORAD_CAT_ID   = 39358
ELEMENT_SET_NO = 999
REV_AT_EPOCH   = 67368
BSTAR          = .17201458E-3
MEAN_MOTION_DOT = .1737E-4
MEAN_MOTION_DDOT = 0

CCSDS_OMM_VERS = 2.0
CREATION_DATE  = 
ORIGINATOR     = 

OBJECT_NAME    = SL-4 R/B
OBJECT_ID      = 2014-021B
CENTER_NAME    = EARTH
REF_FRAME      = TEME
TIME_SYSTEM    = UTC
MEAN_ELEMENT_THEORY = SGP/SGP4

EPOCH          = 2026-03-24T05:38:35.345184
MEAN_MOTION    = 15.39661008
ECCENTRICITY   = .00961597
INCLINATION    = 51.6056
RA_OF_ASC_NODE = 266.2918
ARG_OF_PERICENTER = 155.9801
MEAN_ANOMALY   = 204.5712

EPHEMERIS_TYPE = 0
CLASSIFICATION_TYPE = U
NORAD_CAT_ID   = 39679
ELEMENT_SET_NO = 999
REV_AT_EPOCH   = 65851
BSTAR          = .34771932E-3
MEAN_MOTION_DOT = .15983E-3
MEAN_MOTION_DDOT = 0

